STARLINK-3844           
1 52705U 22053BB  26068.41339068  .00000222  00000+0  32019-4 0  9991
2 52705  53.2172 135.3619 0001211  66.2203 293.8916 15.08831189211278
ONEWEB-0618             
1 55159U 23004V   26068.89389266  .00008547  00000+0  49588-3 0  9997
2 55159  86.9069 217.8931 0010784 307.7231  52.3030 15.11974897167255
